[{"OBJECT_NAME":"NAPA-2","OBJECT_ID":"2021-059CN","EPOCH":"2026-03-09T23:29:49.102656","MEAN_MOTION":15.70952391,"ECCENTRICITY":0.00036606,"INCLINATION":97.6849,"RA_OF_ASC_NODE":256.4978,"ARG_OF_PERICENTER":316.466,"MEAN_ANOMALY":43.6312,"EPHEMERIS_TYPE":0,"CLASSIFICATION_TYPE":"U","NORAD_CAT_ID":48963,"ELEMENT_SET_NO":999,"REV_AT_EPOCH":26212,"BSTAR":0.00074486022,"MEAN_MOTION_DOT":0.00093758,"MEAN_MOTION_DDOT":0},{"OBJECT_NAME":"STARLINK-11295 [DTC]","OBJECT_ID":"2024-184E","EPOCH":"2026-03-09T17:20:43.576512","MEAN_MOTION":15.6966187,"ECCENTRICITY":0.00015231,"INCLINATION":53.1582,"RA_OF_ASC_NODE":236.0171,"ARG_OF_PERICENTER":73.5687,"MEAN_ANOMALY":286.5498,"EPHEMERIS_TYPE":0,"CLASSIFICATION_TYPE":"U","NORAD_CAT_ID":61536,"ELEMENT_SET_NO":999,"REV_AT_EPOCH":8042,"BSTAR":-1.8602581e-5,"MEAN_MOTION_DOT":-2.837e-5,"MEAN_MOTION_DDOT":0}]
